[{"OBJECT_NAME":"JILIN-1 GAOFEN 2D","OBJECT_ID":"2021-086A","EPOCH":"2026-03-09T21:43:54.183072","MEAN_MOTION":15.09714905,"ECCENTRICITY":0.00351294,"INCLINATION":97.632,"RA_OF_ASC_NODE":191.8747,"ARG_OF_PERICENTER":123.7982,"MEAN_ANOMALY":236.66,"EPHEMERIS_TYPE":0,"CLASSIFICATION_TYPE":"U","NORAD_CAT_ID":49256,"ELEMENT_SET_NO":999,"REV_AT_EPOCH":24573,"BSTAR":0.00040994132,"MEAN_MOTION_DOT":6.64e-5,"MEAN_MOTION_DDOT":0},{"OBJECT_NAME":"STARLINK-6249","OBJECT_ID":"2023-065AQ","EPOCH":"2026-03-09T22:00:01.999584","MEAN_MOTION":15.13259741,"ECCENTRICITY":0.00026279,"INCLINATION":43.0007,"RA_OF_ASC_NODE":221.7072,"ARG_OF_PERICENTER":261.9718,"MEAN_ANOMALY":105.155,"EPHEMERIS_TYPE":0,"CLASSIFICATION_TYPE":"U","NORAD_CAT_ID":56541,"ELEMENT_SET_NO":999,"REV_AT_EPOCH":572,"BSTAR":0.0064157351,"MEAN_MOTION_DOT":0.0011783,"MEAN_MOTION_DDOT":0}]
